NORAD_CAT_ID,OBJECT_NAME,OBJECT_TYPE,EPOCH,MEAN_MOTION,ECCENTRICITY,INCLINATION,RA_OF_ASC_NODE,ARG_OF_PERICENTER,MEAN_ANOMALY,BSTAR,MEAN_MOTION_DOT,MEAN_MOTION_DDOT,TLE_LINE0,TLE_LINE1,TLE_LINE2,SEMIMAJOR_AXIS,PERIOD,APOGEE,PERIGEE,DECAYED
53434.0,STARLINK-4498,PAYLOAD,2022-12-28 13:53:30,15.08844334,0.0001876999999999,53.2193,303.2131,51.5521,308.5639,0.00012763,1.744e-05,0.0,0 STARLINK-4498,1 53434U 22097AY  22362.57882636  .00001744  00000-0  12763-3 0  9997,2 53434  53.2193 303.2131 0001877  51.5521 308.5639 15.08844334 22603,6917.8669999999975,95.437,541.031,538.434,0.0
53434.0,STARLINK-4498,PAYLOAD,2022-12-28 15:28:53,15.08845576,0.0001665999999999,53.219,302.9142,50.9907,309.1233,7.6484e-05,9.3e-06,0.0,0 STARLINK-4498,1 53434U 22097AY  22362.64506556  .00000930  00000-0  76484-4 0  9996,2 53434  53.2190 302.9142 0001666  50.9907 309.1233 15.08845576 22128,6917.863,95.437,540.881,538.576,0.0
53434.0,STARLINK-4498,PAYLOAD,2022-12-29 05:47:22,15.08840802,0.0001938,53.2193,300.2402,47.4334,312.6822,-9.141e-05,-1.743e-05,0.0,0 STARLINK-4498,1 53434U 22097AY  22363.24123307 -.00001743  00000-0 -91410-4 0  9993,2 53434  53.2193 300.2402 0001938  47.4334 312.6822 15.08840802 22218,6917.878000000002,95.438,541.0840000000002,538.4019999999998,0.0
53434.0,STARLINK-4498,PAYLOAD,2022-12-30 05:38:09,15.08837527,0.0001434,53.2197,295.7762,54.8815,305.2311,-7.5338e-05,-1.487e-05,0.0,0 STARLINK-4498,1 53434U 22097AY  22364.23483386 -.00001487  00000-0 -75338-4 0  9995,2 53434  53.2197 295.7762 0001434  54.8815 305.2311 15.08837527 22857,6917.888000000001,95.438,540.745,538.761,0.0
53434.0,STARLINK-4498,PAYLOAD,2022-12-31 05:28:55,15.08847632,0.0001831999999999,53.2194,291.3183,40.5582,319.5546,0.00023349,3.431e-05,0.0,0 STARLINK-4498,1 53434U 22097AY  22365.22841804  .00003431  00000-0  23349-3 0  9991,2 53434  53.2194 291.3183 0001832  40.5582 319.5546 15.08847632 22517,6917.857,95.437,540.989,538.455,0.0
53434.0,STARLINK-4498,PAYLOAD,2022-12-31 11:50:27,15.08848795,0.000186,53.2195,290.1289,40.5616,319.5515,0.00023015,3.378e-05,0.0,0 STARLINK-4498,1 53434U 22097AY  22365.49337708  .00003378  00000-0  23015-3 0  9993,2 53434  53.2195 290.1289 0001860  40.5616 319.5515 15.08848795 23047,6917.854,95.437,541.005,538.432,0.0
53434.0,STARLINK-4498,PAYLOAD,2023-01-01 05:19:43,15.0883274,0.0001661,53.2184,286.8589,40.7769,319.3347,-3.7415e-05,-8.83e-06,0.0,0 STARLINK-4498,1 53434U 22097AY  23001.22203593 -.00000883  00000-0 -37415-4 0  9996,2 53434  53.2184 286.8589 0001661  40.7769 319.3347 15.08832740 22661,6917.903,95.438,540.9169999999998,538.619,0.0
53434.0,STARLINK-4498,PAYLOAD,2023-01-01 11:41:17,15.08820998,0.000185,53.2191,285.6694,43.369,316.7447,-0.00012902,-2.34e-05,0.0,0 STARLINK-4498,1 53434U 22097AY  23001.48700877 -.00002340  00000-0 -12902-3 0  9994,2 53434  53.2191 285.6694 0001850  43.3690 316.7447 15.08820998 22704,6917.938,95.439,541.0830000000002,538.524,0.0
53434.0,STARLINK-4498,PAYLOAD,2023-01-01 19:38:13,15.08824188,0.0001853,53.2189,284.1824,43.3778,316.736,-0.00021432,-3.696e-05,0.0,0 STARLINK-4498,1 53434U 22097AY  23001.81821250 -.00003696  00000-0 -21432-3 0  9993,2 53434  53.2189 284.1824 0001853  43.3778 316.7360 15.08824188 23249,6917.929,95.439,541.076,538.512,0.0
53434.0,STARLINK-4498,PAYLOAD,2023-01-02 03:35:08,15.08831723,0.0001911999999999,53.2188,282.6958,45.7302,314.3846,-0.00013594,-2.451e-05,0.0,0 STARLINK-4498,1 53434U 22097AY  23002.14940823 -.00002451  00000-0 -13594-3 0  9996,2 53434  53.2188 282.6958 0001912  45.7302 314.3846 15.08831723 22801,6917.906,95.438,541.0930000000002,538.448,0.0
53434.0,STARLINK-4498,PAYLOAD,2023-01-02 19:29:00,15.08831498,0.0001799,53.2194,279.7226,43.1885,316.9248,9.2025e-05,1.176e-05,0.0,0 STARLINK-4498,1 53434U 22097AY  23002.81180619  .00001176  00000-0  92025-4 0  9997,2 53434  53.2194 279.7226 0001799  43.1885 316.9248 15.08831498 23392,6917.906,95.438,541.016,538.5269999999998,0.0
53434.0,STARLINK-4498,PAYLOAD,2023-01-03 11:22:51,15.08840839,0.0001855999999999,53.2179,276.7484,46.5205,313.5941,0.0003072,4.605e-05,0.0,0 STARLINK-4498,1 53434U 22097AY  23003.47420820  .00004605  00000-0  30720-3 0  9994,2 53434  53.2179 276.7484 0001856  46.5205 313.5941 15.08840839 23005,6917.878000000002,95.438,541.0269999999998,538.4590000000002,0.0
53434.0,STARLINK-4498,PAYLOAD,2023-01-03 17:44:24,15.08833157,0.0001885999999999,53.2168,275.5584,48.3948,311.7206,0.00036282,5.489999999999999e-05,0.0,0 STARLINK-4498,1 53434U 22097AY  23003.73917473  .00005490  00000-0  36282-3 0  9990,2 53434  53.2168 275.5584 0001886  48.3948 311.7206 15.08833157 23041,6917.901,95.438,541.071,538.462,0.0
53434.0,STARLINK-4498,PAYLOAD,2023-01-04 11:13:39,15.08833867,0.0001821,53.217,272.2877,48.0638,312.0509,0.00010953,1.455e-05,0.0,0 STARLINK-4498,1 53434U 22097AY  23004.46781872  .00001455  00000-0  10953-3 0  9997,2 53434  53.2170 272.2877 0001821  48.0638 312.0509 15.08833867 23649,6917.899,95.438,541.024,538.504,0.0
53434.0,STARLINK-4498,PAYLOAD,2023-01-05 03:07:29,15.08859687,0.0001684,53.2163,269.3138,37.4799,322.631,0.0004157,6.338e-05,0.0,0 STARLINK-4498,1 53434U 22097AY  23005.13020333  .00006338  00000-0  41570-3 0  9994,2 53434  53.2163 269.3138 0001684  37.4799 322.6310 15.08859687 23257,6917.82,95.436,540.85,538.52,0.0
53434.0,STARLINK-4498,PAYLOAD,2023-01-05 11:04:24,15.08869557,0.0002171999999999,53.2179,267.8278,45.9915,314.1256,0.00056009,8.644e-05,0.0,0 STARLINK-4498,1 53434U 22097AY  23005.46139879  .00008644  00000-0  56009-3 0  9991,2 53434  53.2179 267.8278 0002172  45.9915 314.1256 15.08869557 23790,6917.79,95.436,541.158,538.153,0.0
53434.0,STARLINK-4498,PAYLOAD,2023-01-06 17:16:44,15.08833583,0.0002187,53.2172,262.1791,47.4644,312.6533,-0.00038049,-6.338e-05,0.0,0 STARLINK-4498,1 53434U 22097AY  23006.71996166 -.00006338  00000-0 -38049-3 0  9994,2 53434  53.2172 262.1791 0002187  47.4644 312.6533 15.08833583 23491,6917.9,95.438,541.278,538.252,0.0
53434.0,STARLINK-4498,PAYLOAD,2023-01-07 02:49:03,15.08835737,0.0001934,53.217,260.3951,50.1389,309.9774,-0.00020232,-3.506e-05,0.0,0 STARLINK-4498,1 53434U 22097AY  23007.11740331 -.00003506  00000-0 -20232-3 0  9999,2 53434  53.2170 260.3951 0001934  50.1389 309.9774 15.08835737 24044,6917.893,95.438,541.096,538.42,0.0
53434.0,STARLINK-4498,PAYLOAD,2023-01-07 17:07:32,15.08828284,0.0001929,53.216,257.7192,42.8464,317.2678,-4.0583e-06,-3.53e-06,0.0,0 STARLINK-4498,1 53434U 22097AY  23007.71357150 -.00000353  00000-0 -40583-5 0  9998,2 53434  53.2160 257.7192 0001929  42.8464 317.2678 15.08828284 24130,6917.916,95.438,541.116,538.447,0.0
53434.0,STARLINK-4498,PAYLOAD,2023-01-08 02:39:52,15.0882411,0.0001957,53.2169,255.9338,46.341,313.7744,7.3682e-05,8.84e-06,0.0,0 STARLINK-4498,1 53434U 22097AY  23008.11101852  .00000884  00000-0  73682-4 0  9991,2 53434  53.2169 255.9338 0001957  46.3410 313.7744 15.08824110 23703,6917.929,95.439,541.148,538.44,0.0
53434.0,STARLINK-4498,PAYLOAD,2023-01-08 09:01:24,15.08831737,0.0002101,53.217,254.7448,44.9154,315.2007,0.00021661,3.16e-05,0.0,0 STARLINK-4498,1 53434U 22097AY  23008.37597759  .00003160  00000-0  21661-3 0  9993,2 53434  53.2170 254.7448 0002101  44.9154 315.2007 15.08831737 24236,6917.906,95.438,541.224,538.317,0.0
53434.0,STARLINK-4498,PAYLOAD,2023-01-08 16:58:20,15.08838921,0.0001971,53.2167,253.2578,47.1982,312.9175,0.0003171,4.762e-05,0.0,0 STARLINK-4498,1 53434U 22097AY  23008.70717692  .00004762  00000-0  31710-3 0  9995,2 53434  53.2167 253.2578 0001971  47.1982 312.9175 15.08838921 23790,6917.884,95.438,541.112,538.385,0.0
53434.0,STARLINK-4498,PAYLOAD,2023-01-09 08:52:11,15.08842428,0.0001949,53.2162,250.2843,46.3065,313.8088,0.00029569,4.421e-05,0.0,0 STARLINK-4498,1 53434U 22097AY  23009.36957739  .00004421  00000-0  29569-3 0  9997,2 53434  53.2162 250.2843 0001949  46.3065 313.8088 15.08842428 24381,6917.873000000001,95.437,541.086,538.39,0.0
53434.0,STARLINK-4498,PAYLOAD,2023-01-09 16:49:07,15.08843202,0.0001897,53.217,248.7979,47.1773,312.9378,0.00014979,2.097e-05,0.0,0 STARLINK-4498,1 53434U 22097AY  23009.70077642  .00002097  00000-0  14979-3 0  9997,2 53434  53.2170 248.7979 0001897  47.1773 312.9378 15.08843202 24438,6917.871,95.437,541.048,538.423,0.0
53434.0,STARLINK-4498,PAYLOAD,2023-01-10 08:42:58,15.088421900000002,0.0001957,53.2159,245.8237,45.9323,314.183,0.00011003,1.464e-05,0.0,0 STARLINK-4498,1 53434U 22097AY  23010.36317691  .00001464  00000-0  11003-3 0  9994,2 53434  53.2159 245.8237 0001957  45.9323 314.1830 15.08842190 24043,6917.874,95.437,541.0930000000002,538.385,0.0
53434.0,STARLINK-4498,PAYLOAD,2023-01-10 18:15:17,15.08838411,0.000186,53.2162,244.0399,42.9611,317.1526,1.7315e-05,-1.3e-07,0.0,0 STARLINK-4498,1 53434U 22097AY  23010.76061838 -.00000013  00000-0  17315-4 0  9990,2 53434  53.2162 244.0399 0001860  42.9611 317.1526 15.08838411 24593,6917.885,95.438,541.0369999999998,538.464,0.0
53434.0,STARLINK-4498,PAYLOAD,2023-01-11 08:33:45,15.08854164,0.0001926,53.2157,241.3631,46.0285,314.0866,0.00033081,4.983e-05,0.0,0 STARLINK-4498,1 53434U 22097AY  23011.35677228  .00004983  00000-0  33081-3 0  9998,2 53434  53.2157 241.3631 0001926  46.0285 314.0866 15.08854164 24687,6917.837,95.437,541.034,538.37,0.0
53434.0,STARLINK-4498,PAYLOAD,2023-01-11 21:16:50,15.08852394,0.0003388,53.2106,238.9858,63.29,296.8438,0.00024207,3.567e-05,0.0,0 STARLINK-4498,1 53434U 22097AY  23011.88669720  .00003567  00000-0  24207-3 0  9991,2 53434  53.2106 238.9858 0003388  63.2900 296.8438 15.08852394 24767,6917.843000000002,95.437,542.0509999999998,537.364,0.0
53434.0,STARLINK-4498,PAYLOAD,2023-01-12 21:07:40,15.08810927,0.0003328,53.2104,234.5233,63.5201,296.6132,-0.00019943,-3.459e-05,0.0,0 STARLINK-4498,1 53434U 22097AY  23012.88032572 -.00003459  00000-0 -19943-3 0  9994,2 53434  53.2104 234.5233 0003328  63.5201 296.6132 15.08810927 24917,6917.969,95.439,542.137,537.5319999999998,0.0
